{
  "norad_id": 61788,
  "name": "SITRO-AIS 45",
  "history": [
    {
      "epoch": "2026-04-10T11:35:10.737024Z",
      "apogee_km": 414.684390688597,
      "perigee_km": 402.8832927290332,
      "latitude_deg": -5.700592426739485e-05,
      "longitude_deg": -37.55679446192259,
      "height_km": 417.55092546003624,
      "semi_major_axis_km": 6786.920841708815,
      "eccentricity": 0.0008694,
      "inclination_deg": 97.3006,
      "raan_deg": 334.9539,
      "arg_perigee_deg": 162.6633,
      "mean_anomaly_deg": 197.4918,
      "mean_motion_rev_day": 15.5272157
    },
    {
      "epoch": "2026-04-11T21:36:44.762112Z",
      "apogee_km": 414.49997033347427,
      "perigee_km": 402.4835654370563,
      "latitude_deg": 1.643065199930742e-05,
      "longitude_deg": 172.09581933182017,
      "height_km": 417.20057133410444,
      "semi_major_axis_km": 6786.628767885265,
      "eccentricity": 0.0008853,
      "inclination_deg": 97.3008,
      "raan_deg": 336.3957,
      "arg_perigee_deg": 158.1207,
      "mean_anomaly_deg": 202.0426,
      "mean_motion_rev_day": 15.52821807
    },
    {
      "epoch": "2026-04-13T06:05:24.350784Z",
      "apogee_km": 414.39627163978184,
      "perigee_km": 402.15277088604125,
      "latitude_deg": 2.3494091911359212e-05,
      "longitude_deg": 44.973454870726584,
      "height_km": 416.90660807903936,
      "semi_major_axis_km": 6786.411521262911,
      "eccentricity": 0.00090206,
      "inclination_deg": 97.3008,
      "raan_deg": 337.7721,
      "arg_perigee_deg": 153.9521,
      "mean_anomaly_deg": 206.2188,
      "mean_motion_rev_day": 15.52896371
    },
    {
      "epoch": "2026-04-14T20:45:07.615008Z",
      "apogee_km": 414.25080953829274,
      "perigee_km": 401.842950931672,
      "latitude_deg": -2.1180286562390452e-05,
      "longitude_deg": -174.90619794646108,
      "height_km": 416.4961642997733,
      "semi_major_axis_km": 6786.183880234982,
      "eccentricity": 0.0009142,
      "inclination_deg": 97.3005,
      "raan_deg": 339.4105,
      "arg_perigee_deg": 149.0144,
      "mean_anomaly_deg": 211.165,
      "mean_motion_rev_day": 15.52974509
    },
    {
      "epoch": "2026-04-15T21:29:41.313120Z",
      "apogee_km": 414.1540636681257,
      "perigee_km": 401.65417592546146,
      "latitude_deg": -2.3044320012251993e-05,
      "longitude_deg": 173.98604915609312,
      "height_km": 416.20255012865783,
      "semi_major_axis_km": 6786.041119796793,
      "eccentricity": 0.000921,
      "inclination_deg": 97.3002,
      "raan_deg": 340.4593,
      "arg_perigee_deg": 145.7922,
      "mean_anomaly_deg": 214.3926,
      "mean_motion_rev_day": 15.53023515
    },
    {
      "epoch": "2026-04-16T19:08:38.619744Z",
      "apogee_km": 414.07293161740654,
      "perigee_km": 401.5040404321908,
      "latitude_deg": 2.13340703358862e-05,
      "longitude_deg": -150.72423556027977,
      "height_km": 415.94872555157957,
      "semi_major_axis_km": 6785.925486024798,
      "eccentricity": 0.0009261,
      "inclination_deg": 97.2997,
      "raan_deg": 341.3769,
      "arg_perigee_deg": 143.1875,
      "mean_anomaly_deg": 217.0016,
      "mean_motion_rev_day": 15.53063211
    },
    {
      "epoch": "2026-04-17T21:25:53.910912Z",
      "apogee_km": 413.9722838246771,
      "perigee_km": 401.290090229214,
      "latitude_deg": -4.499743629881322e-05,
      "longitude_deg": 174.99656851985523,
      "height_km": 415.60545313373575,
      "semi_major_axis_km": 6785.768187026945,
      "eccentricity": 0.00093447,
      "inclination_deg": 97.2992,
      "raan_deg": 342.491,
      "arg_perigee_deg": 139.8431,
      "mean_anomaly_deg": 220.3514,
      "mean_motion_rev_day": 15.53117213
    },
    {
      "epoch": "2026-04-18T20:37:32.349216Z",
      "apogee_km": 413.78250262088204,
      "perigee_km": 401.07449555419043,
      "latitude_deg": -2.2300485988310596e-05,
      "longitude_deg": -172.88283802437314,
      "height_km": 415.18294753072854,
      "semi_major_axis_km": 6785.5654990875355,
      "eccentricity": 0.0009364,
      "inclination_deg": 97.2989,
      "raan_deg": 343.4743,
      "arg_perigee_deg": 136.7415,
      "mean_anomaly_deg": 223.4575,
      "mean_motion_rev_day": 15.53186802
    },
    {
      "epoch": "2026-04-19T21:21:52.924032Z",
      "apogee_km": 413.5914900980333,
      "perigee_km": 400.807915749725,
      "latitude_deg": 6.294232963804308e-06,
      "longitude_deg": 176.06393219044165,
      "height_km": 414.7315029308966,
      "semi_major_axis_km": 6785.336702923879,
      "eccentricity": 0.000942,
      "inclination_deg": 97.2985,
      "raan_deg": 344.5228,
      "arg_perigee_deg": 133.5726,
      "mean_anomaly_deg": 226.6311,
      "mean_motion_rev_day": 15.53265361
    },
    {
      "epoch": "2026-04-20T14:22:19.700832Z",
      "apogee_km": 413.4742389486046,
      "perigee_km": 400.665396925976,
      "latitude_deg": 2.100745427623436e-05,
      "longitude_deg": -79.0252118053459,
      "height_km": 414.43326220297774,
      "semi_major_axis_km": 6785.20681793729,
      "eccentricity": 0.00094388,
      "inclination_deg": 97.2983,
      "raan_deg": 345.2437,
      "arg_perigee_deg": 131.431,
      "mean_anomaly_deg": 228.7756,
      "mean_motion_rev_day": 15.53309961
    },
    {
      "epoch": "2026-04-21T19:44:50.574048Z",
      "apogee_km": 413.25827964288965,
      "perigee_km": 400.3560298382354,
      "latitude_deg": -8.674729898040486e-06,
      "longitude_deg": -159.61504781103372,
      "height_km": 413.882824222229,
      "semi_major_axis_km": 6784.944154740562,
      "eccentricity": 0.0009508,
      "inclination_deg": 97.2982,
      "raan_deg": 346.4889,
      "arg_perigee_deg": 127.7688,
      "mean_anomaly_deg": 232.4428,
      "mean_motion_rev_day": 15.53400161
    },
    {
      "epoch": "2026-04-22T17:23:28.421664Z",
      "apogee_km": 413.13451102274394,
      "perigee_km": 400.1498006742813,
      "latitude_deg": 1.7617956643064933e-05,
      "longitude_deg": -124.24413297753154,
      "height_km": 413.49977811030027,
      "semi_major_axis_km": 6784.779155848512,
      "eccentricity": 0.0009569,
      "inclination_deg": 97.2981,
      "raan_deg": 347.4064,
      "arg_perigee_deg": 125.108,
      "mean_anomaly_deg": 235.1072,
      "mean_motion_rev_day": 15.53456827
    },
    {
      "epoch": "2026-04-23T13:29:18.163392Z",
      "apogee_km": 412.9913244584386,
      "perigee_km": 399.97096377806156,
      "latitude_deg": 2.4320068899243205e-05,
      "longitude_deg": -65.67465334098354,
      "height_km": 413.1054056898122,
      "semi_major_axis_km": 6784.61814411825,
      "eccentricity": 0.00095955,
      "inclination_deg": 97.2983,
      "raan_deg": 348.2585,
      "arg_perigee_deg": 122.534,
      "mean_anomaly_deg": 237.6842,
      "mean_motion_rev_day": 15.53512127
    },
    {
      "epoch": "2026-04-24T20:24:20.183040Z",
      "apogee_km": 412.7876348694481,
      "perigee_km": 399.64363007929205,
      "latitude_deg": -6.410873425620867e-05,
      "longitude_deg": -169.39178424673983,
      "height_km": 412.51233975754326,
      "semi_major_axis_km": 6784.35263247437,
      "eccentricity": 0.0009687,
      "inclination_deg": 97.2984,
      "raan_deg": 349.5695,
      "arg_perigee_deg": 118.8845,
      "mean_anomaly_deg": 241.3381,
      "mean_motion_rev_day": 15.53603325
    },
    {
      "epoch": "2026-04-25T19:35:31.886592Z",
      "apogee_km": 412.57230832885034,
      "perigee_km": 399.355522925026,
      "latitude_deg": 2.555836138442555e-05,
      "longitude_deg": -157.1593998306415,
      "height_km": 412.00858830131597,
      "semi_major_axis_km": 6784.100915626937,
      "eccentricity": 0.0009741,
      "inclination_deg": 97.2985,
      "raan_deg": 350.5529,
      "arg_perigee_deg": 116.2535,
      "mean_anomaly_deg": 243.9721,
      "mean_motion_rev_day": 15.53689793
    },
    {
      "epoch": "2026-04-26T21:52:07.353408Z",
      "apogee_km": 412.2941820126762,
      "perigee_km": 399.037545808138,
      "latitude_deg": -4.523444630882602e-05,
      "longitude_deg": 168.7285930092845,
      "height_km": 411.40151845443796,
      "semi_major_axis_km": 6783.802863910407,
      "eccentricity": 0.00097708,
      "inclination_deg": 97.2984,
      "raan_deg": 351.6678,
      "arg_perigee_deg": 113.2334,
      "mean_anomaly_deg": 246.9949,
      "mean_motion_rev_day": 15.53792188
    },
    {
      "epoch": "2026-04-27T19:30:24.657696Z",
      "apogee_km": 412.04542093289,
      "perigee_km": 398.76053623882854,
      "latitude_deg": -3.1410272698621584e-05,
      "longitude_deg": -155.8139560705592,
      "height_km": 410.85370105625094,
      "semi_major_axis_km": 6783.539978585859,
      "eccentricity": 0.0009792,
      "inclination_deg": 97.2982,
      "raan_deg": 352.586,
      "arg_perigee_deg": 110.537,
      "mean_anomaly_deg": 249.6935,
      "mean_motion_rev_day": 15.53882511
    },
    {
      "epoch": "2026-04-28T20:14:05.109216Z",
      "apogee_km": 411.80709826344446,
      "perigee_km": 398.5009945468164,
      "latitude_deg": -6.451435851179617e-06,
      "longitude_deg": -166.69874539676448,
      "height_km": 410.2804359381969,
      "semi_major_axis_km": 6783.29104640513,
      "eccentricity": 0.0009808,
      "inclination_deg": 97.2979,
      "raan_deg": 353.6353,
      "arg_perigee_deg": 107.552,
      "mean_anomaly_deg": 252.6806,
      "mean_motion_rev_day": 15.53968048
    },
    {
      "epoch": "2026-04-29T19:24:57.580992Z",
      "apogee_km": 411.5984159214386,
      "perigee_km": 398.256128498002,
      "latitude_deg": 3.593787440052391e-05,
      "longitude_deg": -154.38590266448173,
      "height_km": 409.7820207121698,
      "semi_major_axis_km": 6783.06427220972,
      "eccentricity": 0.0009835,
      "inclination_deg": 97.2976,
      "raan_deg": 354.6188,
      "arg_perigee_deg": 105.0753,
      "mean_anomaly_deg": 255.159,
      "mean_motion_rev_day": 15.54045978
    }
  ]
}